CCSDS_OMM_VERS = 2.0
CREATION_DATE  = 
ORIGINATOR     = 

OBJECT_NAME    = STARLINK-36435
OBJECT_ID      = 2026-016H
CENTER_NAME    = EARTH
REF_FRAME      = TEME
TIME_SYSTEM    = UTC
MEAN_ELEMENT_THEORY = SGP/SGP4

EPOCH          = 2026-02-20T03:35:00.688992
MEAN_MOTION    = 15.80835383
ECCENTRICITY   = .00026569
INCLINATION    = 97.2831
RA_OF_ASC_NODE = 110.7914
ARG_OF_PERICENTER = 358.7273
MEAN_ANOMALY   = 1.3988

EPHEMERIS_TYPE = 0
CLASSIFICATION_TYPE = U
NORAD_CAT_ID   = 67568
ELEMENT_SET_NO = 999
REV_AT_EPOCH   = 404
BSTAR          = .11061762E-2
MEAN_MOTION_DOT = .217315E-2
MEAN_MOTION_DDOT = 0

CCSDS_OMM_VERS = 2.0
CREATION_DATE  = 
ORIGINATOR     = 

OBJECT_NAME    = STARLINK-36575
OBJECT_ID      = 2026-016J
CENTER_NAME    = EARTH
REF_FRAME      = TEME
TIME_SYSTEM    = UTC
MEAN_ELEMENT_THEORY = SGP/SGP4

EPOCH          = 2026-02-20T03:33:16.051680
MEAN_MOTION    = 15.80960408
ECCENTRICITY   = .00019261
INCLINATION    = 97.2836
RA_OF_ASC_NODE = 110.7951
ARG_OF_PERICENTER = 124.6764
MEAN_ANOMALY   = 235.4686

EPHEMERIS_TYPE = 0
CLASSIFICATION_TYPE = U
NORAD_CAT_ID   = 67569
ELEMENT_SET_NO = 999
REV_AT_EPOCH   = 404
BSTAR          = .1382722E-2
MEAN_MOTION_DOT = .275046E-2
MEAN_MOTION_DDOT = 0

CCSDS_OMM_VERS = 2.0
CREATION_DATE  = 
ORIGINATOR     = 

OBJECT_NAME    = STARLINK-36562
OBJECT_ID      = 2026-016K
CENTER_NAME    = EARTH
REF_FRAME      = TEME
TIME_SYSTEM    = UTC
MEAN_ELEMENT_THEORY = SGP/SGP4

EPOCH          = 2026-02-20T03:32:00.516480
MEAN_MOTION    = 15.80470628
ECCENTRICITY   = .00013197
INCLINATION    = 97.2830
RA_OF_ASC_NODE = 110.7958
ARG_OF_PERICENTER = 83.5855
MEAN_ANOMALY   = 276.5564

EPHEMERIS_TYPE = 0
CLASSIFICATION_TYPE = U
NORAD_CAT_ID   = 67570
ELEMENT_SET_NO = 999
REV_AT_EPOCH   = 404
BSTAR          = -.23104736E-2
MEAN_MOTION_DOT = -.415678E-2
MEAN_MOTION_DDOT = 0

CCSDS_OMM_VERS = 2.0
CREATION_DATE  = 
ORIGINATOR     = 

OBJECT_NAME    = STARLINK-36578
OBJECT_ID      = 2026-016L
CENTER_NAME    = EARTH
REF_FRAME      = TEME
TIME_SYSTEM    = UTC
MEAN_ELEMENT_THEORY = SGP/SGP4

EPOCH          = 2026-02-20T02:54:20.562048
MEAN_MOTION    = 15.75244298
ECCENTRICITY   = .00004038
INCLINATION    = 97.2826
RA_OF_ASC_NODE = 110.6775
ARG_OF_PERICENTER = 137.4154
MEAN_ANOMALY   = 222.7142

EPHEMERIS_TYPE = 0
CLASSIFICATION_TYPE = U
NORAD_CAT_ID   = 67571
ELEMENT_SET_NO = 999
REV_AT_EPOCH   = 403
BSTAR          = .15517701E-2
MEAN_MOTION_DOT = .238473E-2
MEAN_MOTION_DDOT = 0

CCSDS_OMM_VERS = 2.0
CREATION_DATE  = 
ORIGINATOR     = 

OBJECT_NAME    = STARLINK-36350
OBJECT_ID      = 2026-016M
CENTER_NAME    = EARTH
REF_FRAME      = TEME
TIME_SYSTEM    = UTC
MEAN_ELEMENT_THEORY = SGP/SGP4

EPOCH          = 2026-02-20T02:43:09.683328
MEAN_MOTION    = 15.75301843
ECCENTRICITY   = .00015316
INCLINATION    = 97.2831
RA_OF_ASC_NODE = 110.6869
ARG_OF_PERICENTER = 110.5225
MEAN_ANOMALY   = 249.6205

EPHEMERIS_TYPE = 0
CLASSIFICATION_TYPE = U
NORAD_CAT_ID   = 67572
ELEMENT_SET_NO = 999
REV_AT_EPOCH   = 403
BSTAR          = .19701295E-2
MEAN_MOTION_DOT = .305981E-2
MEAN_MOTION_DDOT = 0

CCSDS_OMM_VERS = 2.0
CREATION_DATE  = 
ORIGINATOR     = 

OBJECT_NAME    = STARLINK-36588
OBJECT_ID      = 2026-016N
CENTER_NAME    = EARTH
REF_FRAME      = TEME
TIME_SYSTEM    = UTC
MEAN_ELEMENT_THEORY = SGP/SGP4

EPOCH          = 2026-02-20T02:46:12.732960
MEAN_MOTION    = 15.75334120
ECCENTRICITY   = .00025435
INCLINATION    = 97.2826
RA_OF_ASC_NODE = 110.6846
ARG_OF_PERICENTER = 139.0872
MEAN_ANOMALY   = 221.0585

EPHEMERIS_TYPE = 0
CLASSIFICATION_TYPE = U
NORAD_CAT_ID   = 67573
ELEMENT_SET_NO = 999
REV_AT_EPOCH   = 403
BSTAR          = .19758661E-2
MEAN_MOTION_DOT = .307357E-2
MEAN_MOTION_DDOT = 0

CCSDS_OMM_VERS = 2.0
CREATION_DATE  = 
ORIGINATOR     = 

OBJECT_NAME    = STARLINK-36594
OBJECT_ID      = 2026-016P
CENTER_NAME    = EARTH
REF_FRAME      = TEME
TIME_SYSTEM    = UTC
MEAN_ELEMENT_THEORY = SGP/SGP4

EPOCH          = 2026-02-19T03:06:41.787648
MEAN_MOTION    = 15.80970017
ECCENTRICITY   = .00022892
INCLINATION    = 97.2822
RA_OF_ASC_NODE = 109.7293
ARG_OF_PERICENTER = 128.5692
MEAN_ANOMALY   = 231.5781

EPHEMERIS_TYPE = 0
CLASSIFICATION_TYPE = U
NORAD_CAT_ID   = 67574
ELEMENT_SET_NO = 999
REV_AT_EPOCH   = 388
BSTAR          = .12342936E-2
MEAN_MOTION_DOT = .24476E-2
MEAN_MOTION_DDOT = 0

CCSDS_OMM_VERS = 2.0
CREATION_DATE  = 
ORIGINATOR     = 

OBJECT_NAME    = STARLINK-36400
OBJECT_ID      = 2026-016Q
CENTER_NAME    = EARTH
REF_FRAME      = TEME
TIME_SYSTEM    = UTC
MEAN_ELEMENT_THEORY = SGP/SGP4

EPOCH          = 2026-02-20T03:52:16.562784
MEAN_MOTION    = 15.75291628
ECCENTRICITY   = .0001111
INCLINATION    = 97.2840
RA_OF_ASC_NODE = 110.7749
ARG_OF_PERICENTER = 91.6386
MEAN_ANOMALY   = 268.5007

EPHEMERIS_TYPE = 0
CLASSIFICATION_TYPE = U
NORAD_CAT_ID   = 67575
ELEMENT_SET_NO = 999
REV_AT_EPOCH   = 404
BSTAR          = .11992473E-2
MEAN_MOTION_DOT = .183444E-2
MEAN_MOTION_DDOT = 0

CCSDS_OMM_VERS = 2.0
CREATION_DATE  = 
ORIGINATOR     = 

OBJECT_NAME    = STARLINK-36591
OBJECT_ID      = 2026-016R
CENTER_NAME    = EARTH
REF_FRAME      = TEME
TIME_SYSTEM    = UTC
MEAN_ELEMENT_THEORY = SGP/SGP4

EPOCH          = 2026-02-20T06:00:02.000160
MEAN_MOTION    = 15.75203153
ECCENTRICITY   = .00011219
INCLINATION    = 97.2851
RA_OF_ASC_NODE = 110.8981
ARG_OF_PERICENTER = 91.5581
MEAN_ANOMALY   = 119.2855

EPHEMERIS_TYPE = 0
CLASSIFICATION_TYPE = U
NORAD_CAT_ID   = 67576
ELEMENT_SET_NO = 999
REV_AT_EPOCH   = 524
BSTAR          = -.51775378E-3
MEAN_MOTION_DOT = -.76708E-3
MEAN_MOTION_DDOT = 0

CCSDS_OMM_VERS = 2.0
CREATION_DATE  = 
ORIGINATOR     = 

OBJECT_NAME    = STARLINK-36590
OBJECT_ID      = 2026-016S
CENTER_NAME    = EARTH
REF_FRAME      = TEME
TIME_SYSTEM    = UTC
MEAN_ELEMENT_THEORY = SGP/SGP4

EPOCH          = 2026-02-20T02:26:23.684928
MEAN_MOTION    = 15.75306051
ECCENTRICITY   = .00009437
INCLINATION    = 97.2838
RA_OF_ASC_NODE = 110.7023
ARG_OF_PERICENTER = 114.6421
MEAN_ANOMALY   = 245.4942

EPHEMERIS_TYPE = 0
CLASSIFICATION_TYPE = U
NORAD_CAT_ID   = 67577
ELEMENT_SET_NO = 999
REV_AT_EPOCH   = 403
BSTAR          = .21871224E-2
MEAN_MOTION_DOT = .341188E-2
MEAN_MOTION_DDOT = 0

CCSDS_OMM_VERS = 2.0
CREATION_DATE  = 
ORIGINATOR     = 

OBJECT_NAME    = STARLINK-36613
OBJECT_ID      = 2026-016T
CENTER_NAME    = EARTH
REF_FRAME      = TEME
TIME_SYSTEM    = UTC
MEAN_ELEMENT_THEORY = SGP/SGP4

EPOCH          = 2026-02-20T03:19:12.599328
MEAN_MOTION    = 15.80886522
ECCENTRICITY   = .00017243
INCLINATION    = 97.2828
RA_OF_ASC_NODE = 110.8058
ARG_OF_PERICENTER = 89.9252
MEAN_ANOMALY   = 270.2214

EPHEMERIS_TYPE = 0
CLASSIFICATION_TYPE = U
NORAD_CAT_ID   = 67578
ELEMENT_SET_NO = 999
REV_AT_EPOCH   = 404
BSTAR          = .65999202E-3
MEAN_MOTION_DOT = .128573E-2
MEAN_MOTION_DDOT = 0

CCSDS_OMM_VERS = 2.0
CREATION_DATE  = 
ORIGINATOR     = 

OBJECT_NAME    = STARLINK-36571
OBJECT_ID      = 2026-016U
CENTER_NAME    = EARTH
REF_FRAME      = TEME
TIME_SYSTEM    = UTC
MEAN_ELEMENT_THEORY = SGP/SGP4

EPOCH          = 2026-02-20T02:31:59.022336
MEAN_MOTION    = 15.75310897
ECCENTRICITY   = .00018397
INCLINATION    = 97.2835
RA_OF_ASC_NODE = 110.6979
ARG_OF_PERICENTER = 110.0321
MEAN_ANOMALY   = 250.1142

EPHEMERIS_TYPE = 0
CLASSIFICATION_TYPE = U
NORAD_CAT_ID   = 67579
ELEMENT_SET_NO = 999
REV_AT_EPOCH   = 403
BSTAR          = .13592837E-2
MEAN_MOTION_DOT = .20874E-2
MEAN_MOTION_DDOT = 0

