STARLINK-36435          
1 67568U 26016H   26051.14931353  .00217315  00000+0  11062-2 0  9990
2 67568  97.2831 110.7914 0002656 358.7273   1.3988 15.80835383  4042
STARLINK-36575          
1 67569U 26016J   26051.14810245  .00275046  00000+0  13827-2 0  9993
2 67569  97.2836 110.7951 0001926 124.6764 235.4686 15.80960408  4045
STARLINK-36562          
1 67570U 26016K   26051.14722820 -.00415678  00000+0 -23105-2 0  9995
2 67570  97.2830 110.7958 0001319  83.5855 276.5564 15.80470628  4049
STARLINK-36578          
1 67571U 26016L   26051.12107132  .00238473  00000+0  15518-2 0  9990
2 67571  97.2826 110.6775 0000403 137.4154 222.7142 15.75244298  4035
STARLINK-36350          
1 67572U 26016M   26051.11330652  .00305981  00000+0  19701-2 0  9992
2 67572  97.2831 110.6869 0001531 110.5225 249.6205 15.75301843  4038
STARLINK-36588          
1 67573U 26016N   26051.11542515  .00307357  00000+0  19759-2 0  9998
2 67573  97.2826 110.6846 0002543 139.0872 221.0585 15.75334120  4035
STARLINK-36594          
1 67574U 26016P   26050.12965032  .00244760  00000+0  12343-2 0  9992
2 67574  97.2822 109.7293 0002289 128.5692 231.5781 15.80970017  3880
STARLINK-36400          
1 67575U 26016Q   26051.16130281  .00183444  00000+0  11992-2 0  9998
2 67575  97.2840 110.7749 0001111  91.6386 268.5007 15.75291628  4040
STARLINK-36591          
1 67576U 26016R   26051.25002315 -.00076708  00000+0 -51775-3 0  9995
2 67576  97.2851 110.8981 0001121  91.5581 119.2855 15.75203153  5241
STARLINK-36590          
1 67577U 26016S   26051.10166302  .00341188  00000+0  21871-2 0  9995
2 67577  97.2838 110.7023 0000943 114.6421 245.4942 15.75306051  4030
STARLINK-36613          
1 67578U 26016T   26051.13834027  .00128573  00000+0  65999-3 0  9996
2 67578  97.2828 110.8058 0001724  89.9252 270.2214 15.80886522  4044
STARLINK-36571          
1 67579U 26016U   26051.10554424  .00208740  00000+0  13593-2 0  9991
2 67579  97.2835 110.6979 0001839 110.0321 250.1142 15.75310897  4030
